SL-14 R/B               
1 16792U 86046B   26064.56395302  .00000645  00000+0  71559-4 0  9995
2 16792  82.4782  84.0813 0021742 239.7797 120.1266 14.85585893125790
SL-14 R/B               
1 16882U 86055B   26064.70602933  .00000634  00000+0  70193-4 0  9993
2 16882  82.5209 130.4184 0018530 350.0678 133.4923 14.85638740118775
AJISAI (EGS)            
1 16908U 86061A   26064.84228009 -.00000077  00000+0  14666-3 0  9996
2 16908  50.0080 105.1790 0011260 277.1534  69.3354 12.44515611467514
COSMOS 1812             
1 17295U 87003A   26064.88742884  .07088221 -12681-5  27855-3 0  9991
2 17295  82.4638 199.8837 0010710 275.6163  84.3916 16.42967947143870
SL-14 R/B               
1 17567U 87024B   26064.59886053  .00000615  00000+0  67260-4 0  9995
2 17567  82.5250  96.6097 0016679 274.7491  85.1820 14.86127704 87526
COSMOS 1833             
1 17589U 87027A   26064.75447907 -.00000137  00000+0 -47236-4 0  9993
2 17589  70.9231 334.2889 0024456 220.0072 139.9248 14.13055727  9768
SL-16 R/B               
1 17590U 87027B   26064.73955326 -.00000140  00000+0 -45815-4 0  9997
2 17590  71.0014 284.8196 0003603 151.3924 208.7398 14.17165916 14780
SL-14 R/B               
1 17912U 87038B   26064.72645989  .00000610  00000+0  67928-4 0  9996
2 17912  82.5008 300.5415 0019343 173.2963 186.8516 14.85365418 78649
COSMOS 1844             
1 17973U 87041A   26064.36954211 -.00000092  00000+0 -22809-4 0  9993
2 17973  70.8996  43.2872 0029763  24.3038 335.9480 14.14553146  2975
SL-14 R/B               
1 18153U 87055B   26064.50203623  .00000820  00000+0  91608-4 0  9999
2 18153  82.5029 352.9768 0021508  31.2603 328.9887 14.85623784 69319
COSMOS 1867             
1 18187U 87060A   26064.73860796  .00000006  00000+0  39946-4 0  9990
2 18187  65.0116 317.7702 0014431 278.4028  81.5421 14.31502442 19374
SL-14 R/B               
1 18749U 88001B   26064.83383127  .00000864  00000+0  97109-4 0  9996
2 18749  82.5146 198.9857 0016670 249.4815 110.4612 14.85522565 41459
